0 SL-12 R/B(2)
1 23208U 94050F   13280.43739440 -.00000034  00000-0  00000+0 0  3105
2 23208 066.6380 352.9434 0025163 235.8030 151.0365 02.13427068149305
0 SL-12 R/B(2)
1 23208U 94050F   13282.79322162 -.00000045  00000-0  00000+0 0  3118
2 23208 066.6381 352.8664 0025167 235.8210 161.0665 02.13427156149351
0 SL-12 R/B(2)
1 23208U 94050F   13286.49419852 -.00000062  00000-0  00000+0 0  3122
2 23208 066.6382 352.7458 0025261 235.9458 124.5063 02.13427298149434
0 SL-12 R/B(2)
1 23208U 94050F   13288.74497035 -.00000060  00000-0  00000+0 0  3130
2 23208 066.6381 352.6725 0025320 236.0102 053.7748 02.13427351149481
0 SL-12 R/B(2)
1 23208U 94050F   13293.41265593 -.00000057  00000-0  00000+0 0  3149
2 23208 066.6379 352.5206 0025377 236.0196 040.0869 02.13427346149584
